NORAD_CAT_ID,OBJECT_NAME,OBJECT_TYPE,EPOCH,MEAN_MOTION,ECCENTRICITY,INCLINATION,RA_OF_ASC_NODE,ARG_OF_PERICENTER,MEAN_ANOMALY,BSTAR,MEAN_MOTION_DOT,MEAN_MOTION_DDOT,TLE_LINE0,TLE_LINE1,TLE_LINE2,SEMIMAJOR_AXIS,PERIOD,APOGEE,PERIGEE,DECAYED
52383.0,STARLINK-3811,PAYLOAD,2024-08-20 08:01:38,15.08840624,0.0001486,53.2166,201.6156,93.6002,266.516,7.9593e-05,9.79e-06,0.0,0 STARLINK-3811,1 52383U 22045BE  24233.33447555  .00000979  00000-0  79593-4 0  9996,2 52383  53.2166 201.6156 0001486  93.6002 266.5160 15.08840624130565,6917.878,95.438,540.771,538.715,0.0
52383.0,STARLINK-3811,PAYLOAD,2024-08-21 04:41:39,15.08839943,0.0001467,53.2164,197.7496,93.1496,266.9664,5.3719e-05,5.67e-06,0.0,0 STARLINK-3811,1 52383U 22045BE  24234.19559796  .00000567  00000-0  53719-4 0  9997,2 52383  53.2164 197.7496 0001467  93.1496 266.9664 15.08839943130695,6917.881,95.438,540.76,538.731,0.0
52383.0,STARLINK-3811,PAYLOAD,2024-08-21 20:35:31,15.08835369,0.0001455,53.2162,194.7765,92.5556,267.5603,1.648e-05,-2.6e-07,0.0,0 STARLINK-3811,1 52383U 22045BE  24234.85800358 -.00000026  00000-0  16480-4 0  9998,2 52383  53.2162 194.7765 0001455  92.5556 267.5603 15.08835369130795,6917.895,95.438,540.766,538.753,0.0
